[{"OBJECT_NAME":"STARLINK-3540","OBJECT_ID":"2022-016F","EPOCH":"2026-03-09T22:31:05.700288","MEAN_MOTION":15.08830295,"ECCENTRICITY":0.00016137,"INCLINATION":53.2182,"RA_OF_ASC_NODE":328.082,"ARG_OF_PERICENTER":89.8823,"MEAN_ANOMALY":270.2354,"EPHEMERIS_TYPE":0,"CLASSIFICATION_TYPE":"U","NORAD_CAT_ID":51719,"ELEMENT_SET_NO":999,"REV_AT_EPOCH":22346,"BSTAR":6.0846431e-5,"MEAN_MOTION_DOT":6.8e-6,"MEAN_MOTION_DDOT":0},{"OBJECT_NAME":"OBJECT BE","OBJECT_ID":"2018-099BE","EPOCH":"2026-03-09T15:10:24.322944","MEAN_MOTION":15.09972337,"ECCENTRICITY":0.0006427,"INCLINATION":97.4031,"RA_OF_ASC_NODE":111.7891,"ARG_OF_PERICENTER":340.4925,"MEAN_ANOMALY":19.6058,"EPHEMERIS_TYPE":0,"CLASSIFICATION_TYPE":"U","NORAD_CAT_ID":43810,"ELEMENT_SET_NO":999,"REV_AT_EPOCH":39698,"BSTAR":0.00027209,"MEAN_MOTION_DOT":4.358e-5,"MEAN_MOTION_DDOT":0}]
